{"type": "FeatureCollection", "features": [ {"type": "Feature", "properties": {"norad_id": 39778, "name": "IRIDIUM 33 DEB", "group": "iridium-33-debris", "lat": -0.6076302949416044, "lon": -140.2609713681178, "alt_km": 719.6090564140923, "timestamp": "2025-12-20T20:38:44.827513+00:00", "meta": {"OBJECT_NAME": "IRIDIUM 33 DEB", "OBJECT_ID": "1997-051AAK", "EPOCH": "2025-12-20T09:54:38.464416", "MEAN_MOTION": 14.5431023, "ECCENTRICITY": 0.00071263, "INCLINATION": 86.377, "RA_OF_ASC_NODE": 39.8947, "ARG_OF_PERICENTER": 18.2165, "MEAN_ANOMALY": 341.9295, "EPHEMERIS_TYPE": 0, "CLASSIFICATION_TYPE": "U", "NORAD_CAT_ID": 39778, "ELEMENT_SET_NO": 999, "REV_AT_EPOCH": 60804, "BSTAR": 0.00053344966, "MEAN_MOTION_DOT": 2.283e-05, "MEAN_MOTION_DDOT": 0}, "tle": {"line1": "1 39778U 97051AAK 25354.41294519  .00002283  00000+0  53345-3 0  9997", "line2": "2 39778  86.3770  39.8947 0007126  18.2165 341.9295 14.54310230608040"}}, "geometry": {"type": "Point", "coordinates": [-140.2609713681178, -0.6076302949416044]}}, {"type": "Feature", "properties": {"norad_id": 39781, "name": "IRIDIUM 33 DEB", "group": "iridium-33-debris", "lat": 37.77452244688306, "lon": -102.54913631154231, "alt_km": 928.7040452008496, "timestamp": "2025-12-20T20:38:44.827524+00:00", "meta": {"OBJECT_NAME": "IRIDIUM 33 DEB", "OBJECT_ID": "1997-051AAN", "EPOCH": "2025-12-20T00:15:44.286336", "MEAN_MOTION": 14.2080867, "ECCENTRICITY": 0.01741047, "INCLINATION": 86.3716, "RA_OF_ASC_NODE": 254.9822, "ARG_OF_PERICENTER": 249.9468, "MEAN_ANOMALY": 125.5554, "EPHEMERIS_TYPE": 0, "CLASSIFICATION_TYPE": "U", "NORAD_CAT_ID": 39781, "ELEMENT_SET_NO": 999, "REV_AT_EPOCH": 8210, "BSTAR": 0.0030068331, "MEAN_MOTION_DOT": 7.585e-05, "MEAN_MOTION_DDOT": 0}, "tle": {"line1": "1 39781U 97051AAN 25354.01092924  .00007585  00000+0  30068-2 0  9999", "line2": "2 39781  86.3716 254.9822 0174104 249.9468 125.5554 14.20808670 82106"}}, "geometry": {"type": "Point", "coordinates": [-102.54913631154231, 37.77452244688306]}}, {"type": "Feature", "properties": {"norad_id": 40996, "name": "IRIDIUM 33 DEB", "group": "iridium-33-debris", "lat": -77.050786247569, "lon": -166.2706613580077, "alt_km": 590.772809840234, "timestamp": "2025-12-20T20:38:44.827534+00:00", "meta": {"OBJECT_NAME": "IRIDIUM 33 DEB", "OBJECT_ID": "1997-051ABJ", "EPOCH": "2025-12-19T00:18:17.890848", "MEAN_MOTION": 14.96620971, "ECCENTRICITY": 0.00114718, "INCLINATION": 86.3508, "RA_OF_ASC_NODE": 358.4785, "ARG_OF_PERICENTER": 46.0605, "MEAN_ANOMALY": 343.7105, "EPHEMERIS_TYPE": 0, "CLASSIFICATION_TYPE": "U", "NORAD_CAT_ID": 40996, "ELEMENT_SET_NO": 999, "REV_AT_EPOCH": 62582, "BSTAR": 0.0021050571, "MEAN_MOTION_DOT": 0.00024091, "MEAN_MOTION_DDOT": 0}, "tle": {"line1": "1 40996U 97051ABJ 25353.01270707  .00024091  00000+0  21051-2 0  9998", "line2": "2 40996  86.3508 358.4785 0011471  46.0605 343.7105 14.96620971625826"}}, "geometry": {"type": "Point", "coordinates": [-166.2706613580077, -77.050786247569]}}, {"type": "Feature", "properties": {"norad_id": 40998, "name": "IRIDIUM 33 DEB", "group": "iridium-33-debris", "lat": -67.69199947808758, "lon": 41.31659605614274, "alt_km": 753.1950996738215, "timestamp": "2025-12-20T20:38:44.827544+00:00", "meta": {"OBJECT_NAME": "IRIDIUM 33 DEB", "OBJECT_ID": "1997-051ABL", "EPOCH": "2025-12-19T22:16:12.052992", "MEAN_MOTION": 14.4511921, "ECCENTRICITY": 0.000918, "INCLINATION": 86.3822, "RA_OF_ASC_NODE": 50.5853, "ARG_OF_PERICENTER": 65.4089, "MEAN_ANOMALY": 59.4922, "EPHEMERIS_TYPE": 0, "CLASSIFICATION_TYPE": "U", "NORAD_CAT_ID": 40998, "ELEMENT_SET_NO": 999, "REV_AT_EPOCH": 6785, "BSTAR": 0.00031233, "MEAN_MOTION_DOT": 1.112e-05, "MEAN_MOTION_DDOT": 0}, "tle": {"line1": "1 40998U 97051ABL 25353.92791728  .00001112  00000+0  31233-3 0  9994", "line2": "2 40998  86.3822  50.5853 0009180  65.4089  59.4922 14.45119210 67852"}}, "geometry": {"type": "Point", "coordinates": [41.31659605614274, -67.69199947808758]}}, {"type": "Feature", "properties": {"norad_id": 46435, "name": "IRIDIUM 33 DEB", "group": "iridium-33-debris", "lat": 28.913961911361987, "lon": 8.398106897177454, "alt_km": 801.3353229236345, "timestamp": "2025-12-20T20:38:44.827555+00:00", "meta": {"OBJECT_NAME": "IRIDIUM 33 DEB", "OBJECT_ID": "1997-051ABN", "EPOCH": "2025-12-13T20:22:29.882208", "MEAN_MOTION": 14.32399442, "ECCENTRICITY": 0.0208315, "INCLINATION": 86.2839, "RA_OF_ASC_NODE": 193.4722, "ARG_OF_PERICENTER": 272.7642, "MEAN_ANOMALY": 103.0816, "EPHEMERIS_TYPE": 0, "CLASSIFICATION_TYPE": "U", "NORAD_CAT_ID": 46435, "ELEMENT_SET_NO": 999, "REV_AT_EPOCH": 7932, "BSTAR": 0.009141333, "MEAN_MOTION_DOT": 0.00031559, "MEAN_MOTION_DDOT": 0}, "tle": {"line1": "1 46435U 97051ABN 25347.84895697  .00031559  00000+0  91413-2 0  9993", "line2": "2 46435  86.2839 193.4722 0208315 272.7642 103.0816 14.32399442 79328"}}, "geometry": {"type": "Point", "coordinates": [8.398106897177454, 28.913961911361987]}}, {"type": "Feature", "properties": {"norad_id": 46734, "name": "IRIDIUM 33 DEB", "group": "iridium-33-debris", "lat": -76.88192216642103, "lon": -164.41425667513508, "alt_km": 742.4582346072511, "timestamp": "2025-12-20T20:38:44.827565+00:00", "meta": {"OBJECT_NAME": "IRIDIUM 33 DEB", "OBJECT_ID": "1997-051ABR", "EPOCH": "2025-12-16T07:16:35.707584", "MEAN_MOTION": 14.41911222, "ECCENTRICITY": 0.00381217, "INCLINATION": 86.2633, "RA_OF_ASC_NODE": 1.2995, "ARG_OF_PERICENTER": 323.6514, "MEAN_ANOMALY": 53.8246, "EPHEMERIS_TYPE": 0, "CLASSIFICATION_TYPE": "U", "NORAD_CAT_ID": 46734, "ELEMENT_SET_NO": 999, "REV_AT_EPOCH": 63062, "BSTAR": 0.00075238, "MEAN_MOTION_DOT": 2.503e-05, "MEAN_MOTION_DDOT": 0}, "tle": {"line1": "1 46734U 97051ABR 25350.30319106  .00002503  00000+0  75238-3 0  9991", "line2": "2 46734  86.2633   1.2995 0038121 323.6514  53.8246 14.41911222630621"}}, "geometry": {"type": "Point", "coordinates": [-164.41425667513508, -76.88192216642103]}}, {"type": "Feature", "properties": {"norad_id": 46965, "name": "IRIDIUM 33 DEB", "group": "iridium-33-debris", "lat": -32.47311577187743, "lon": 159.4332857446554, "alt_km": 698.6623390245559, "timestamp": "2025-12-20T20:38:44.827576+00:00", "meta": {"OBJECT_NAME": "IRIDIUM 33 DEB", "OBJECT_ID": "1997-051ABX", "EPOCH": "2025-12-19T17:55:53.080032", "MEAN_MOTION": 14.60345703, "ECCENTRICITY": 0.00174181, "INCLINATION": 86.3352, "RA_OF_ASC_NODE": 337.5891, "ARG_OF_PERICENTER": 308.2563, "MEAN_ANOMALY": 176.3238, "EPHEMERIS_TYPE": 0, "CLASSIFICATION_TYPE": "U", "NORAD_CAT_ID": 46965, "ELEMENT_SET_NO": 999, "REV_AT_EPOCH": 62370, "BSTAR": 0.00056519874, "MEAN_MOTION_DOT": 2.758e-05, "MEAN_MOTION_DDOT": 0}, "tle": {"line1": "1 46965U 97051ABX 25353.74714213  .00002758  00000+0  56520-3 0  9991", "line2": "2 46965  86.3352 337.5891 0017418 308.2563 176.3238 14.60345703623704"}}, "geometry": {"type": "Point", "coordinates": [159.4332857446554, -32.47311577187743]}}, {"type": "Feature", "properties": {"norad_id": 46971, "name": "IRIDIUM 33 DEB", "group": "iridium-33-debris", "lat": -39.77587624419013, "lon": -33.75943665689849, "alt_km": 576.9634827326981, "timestamp": "2025-12-20T20:38:44.827586+00:00", "meta": {"OBJECT_NAME": "IRIDIUM 33 DEB", "OBJECT_ID": "1997-051ACD", "EPOCH": "2025-12-18T04:46:20.926848", "MEAN_MOTION": 14.98336604, "ECCENTRICITY": 0.00026432, "INCLINATION": 86.3383, "RA_OF_ASC_NODE": 330.5483, "ARG_OF_PERICENTER": 282.6501, "MEAN_ANOMALY": 90.914, "EPHEMERIS_TYPE": 0, "CLASSIFICATION_TYPE": "U", "NORAD_CAT_ID": 46971, "ELEMENT_SET_NO": 999, "REV_AT_EPOCH": 64312, "BSTAR": 0.0022892837, "MEAN_MOTION_DOT": 0.00027356, "MEAN_MOTION_DDOT": 0}, "tle": {"line1": "1 46971U 97051ACD 25352.19885332  .00027356  00000+0  22893-2 0  9993", "line2": "2 46971  86.3383 330.5483 0002643 282.6501  90.9140 14.98336604643128"}}, "geometry": {"type": "Point", "coordinates": [-33.75943665689849, -39.77587624419013]}}, {"type": "Feature", "properties": {"norad_id": 46974, "name": "IRIDIUM 33 DEB", "group": "iridium-33-debris", "lat": -6.527213951021053, "lon": -77.84607796637847, "alt_km": 686.0070875437641, "timestamp": "2025-12-20T20:38:44.827596+00:00", "meta": {"OBJECT_NAME": "IRIDIUM 33 DEB", "OBJECT_ID": "1997-051ACG", "EPOCH": "2025-12-14T14:09:41.074272", "MEAN_MOTION": 14.44439168, "ECCENTRICITY": 0.00956816, "INCLINATION": 86.2983, "RA_OF_ASC_NODE": 104.4675, "ARG_OF_PERICENTER": 181.0289, "MEAN_ANOMALY": 179.0732, "EPHEMERIS_TYPE": 0, "CLASSIFICATION_TYPE": "U", "NORAD_CAT_ID": 46974, "ELEMENT_SET_NO": 999, "REV_AT_EPOCH": 57535, "BSTAR": 0.0034715296, "MEAN_MOTION_DOT": 0.00012692, "MEAN_MOTION_DDOT": 0}, "tle": {"line1": "1 46974U 97051ACG 25348.59005873  .00012692  00000+0  34715-2 0  9992", "line2": "2 46974  86.2983 104.4675 0095681 181.0289 179.0732 14.44439168575351"}}, "geometry": {"type": "Point", "coordinates": [-77.84607796637847, -6.527213951021053]}}, {"type": "Feature", "properties": {"norad_id": 46979, "name": "IRIDIUM 33 DEB", "group": "iridium-33-debris", "lat": 76.94698269658383, "lon": 60.834137349445356, "alt_km": 599.2476106718241, "timestamp": "2025-12-20T20:38:44.827607+00:00", "meta": {"OBJECT_NAME": "IRIDIUM 33 DEB", "OBJECT_ID": "1997-051ACM", "EPOCH": "2025-12-17T21:22:35.876928", "MEAN_MOTION": 14.8988445, "ECCENTRICITY": 0.00279352, "INCLINATION": 86.3335, "RA_OF_ASC_NODE": 46.1582, "ARG_OF_PERICENTER": 204.5568, "MEAN_ANOMALY": 155.433, "EPHEMERIS_TYPE": 0, "CLASSIFICATION_TYPE": "U", "NORAD_CAT_ID": 46979, "ELEMENT_SET_NO": 999, "REV_AT_EPOCH": 35505, "BSTAR": 0.0030814972, "MEAN_MOTION_DOT": 0.00029954, "MEAN_MOTION_DDOT": 0}, "tle": {"line1": "1 46979U 97051ACM 25351.89069302  .00029954  00000+0  30815-2 0  9997", "line2": "2 46979  86.3335  46.1582 0027935 204.5568 155.4330 14.89884450355057"}}, "geometry": {"type": "Point", "coordinates": [60.834137349445356, 76.94698269658383]}}]}